NORAD_CAT_ID,OBJECT_NAME,OBJECT_TYPE,EPOCH,MEAN_MOTION,ECCENTRICITY,INCLINATION,RA_OF_ASC_NODE,ARG_OF_PERICENTER,MEAN_ANOMALY,BSTAR,MEAN_MOTION_DOT,MEAN_MOTION_DDOT,TLE_LINE0,TLE_LINE1,TLE_LINE2,SEMIMAJOR_AXIS,PERIOD,APOGEE,PERIGEE,DECAYED
52138.0,STARLINK-3723,PAYLOAD,2022-06-28 14:00:01,15.17152913,0.000132,53.2177,10.1111,66.7816,4.4624,-0.03858,-0.00721974,0.0,0 STARLINK-3723,1 52138U 22029BC  22179.58334491 -.00721974  00000-0 -38580-1 0  9999,2 52138  53.2177  10.1111 0001320  66.7816   4.4624 15.17152913 17116,6892.587,94.915,515.362,513.5419999999998,0.0
52138.0,STARLINK-3723,PAYLOAD,2022-06-28 22:00:00,15.16643261,0.0001344,53.2177,8.5991,69.6202,22.8962,-0.039204,-0.0072291,0.0,0 STARLINK-3723,1 52138U 22029BC  22179.91667824 -.00722910  00000-0 -39204-1 0  9990,2 52138  53.2177   8.5991 0001344  69.6202  22.8962 15.16643261  1303,6894.130999999999,94.947,516.923,515.07,0.0
52138.0,STARLINK-3723,PAYLOAD,2022-06-29 14:00:01,15.15622472,0.0001403,53.2177,5.5737,72.0552,61.2232,-0.04028,-0.00721462,0.0,0 STARLINK-3723,1 52138U 22029BC  22180.58334491 -.00721462  00000-0 -40280-1 0  9993,2 52138  53.2177   5.5737 0001403  72.0552  61.2232 15.15622472  1307,6897.226,95.01,520.059,518.124,0.0
52138.0,STARLINK-3723,PAYLOAD,2022-06-29 22:00:00,15.15111314,0.0001409,53.2176,4.0653,74.234,78.4788,-0.040756,-0.00719561,0.0,0 STARLINK-3723,1 52138U 22029BC  22180.91667824 -.00719561  00000-0 -40756-1 0  9994,2 52138  53.2176   4.0653 0001409  74.2340  78.4788 15.15111314 17314,6898.778,95.043,521.615,519.6709999999998,0.0
52138.0,STARLINK-3723,PAYLOAD,2022-06-30 14:00:01,15.14092298,0.0001457,53.2177,1.0472,71.382,118.3627,-0.04204,-0.00720964,0.0,0 STARLINK-3723,1 52138U 22029BC  22181.58334491 -.00720964  00000-0 -42040-1 0  9996,2 52138  53.2177   1.0472 0001457  71.3820 118.3627 15.14092298  1301,6901.873000000001,95.106,524.743,522.732,0.0
52138.0,STARLINK-3723,PAYLOAD,2022-06-30 22:00:00,15.13580143,0.0001477,53.2176,359.5422,68.2207,139.1203,-0.042404,-0.00717036,0.0,0 STARLINK-3723,1 52138U 22029BC  22181.91667824 -.00717036  00000-0 -42404-1 0  9992,2 52138  53.2176 359.5422 0001477  68.2207 139.1203 15.13580143 17467,6903.429,95.139,526.314,524.275,0.0
52138.0,STARLINK-3723,PAYLOAD,2022-07-01 14:00:01,15.12562262,0.0001428,53.2176,356.5313,74.0477,166.648,-0.043871,-0.00720616,0.0,0 STARLINK-3723,1 52138U 22029BC  22182.58334491 -.00720616  00000-0 -43871-1 0  9994,2 52138  53.2176 356.5313 0001428  74.0477 166.6480 15.12562262  1302,6906.526,95.203,529.378,527.405,0.0
52138.0,STARLINK-3723,PAYLOAD,2022-07-01 22:00:00,15.12050083,0.0001358,53.2175,355.0298,89.0327,167.421,-0.044229,-0.00716432,0.0,0 STARLINK-3723,1 52138U 22029BC  22182.91667824 -.00716432  00000-0 -44229-1 0  9999,2 52138  53.2175 355.0298 0001358  89.0327 167.4210 15.12050083 17613,6908.0859999999975,95.235,530.889,529.013,0.0
52138.0,STARLINK-3723,PAYLOAD,2022-07-02 14:00:01,15.11032399,0.0001384,53.2175,352.026,72.9211,213.2104,-0.045787,-0.00720588,0.0,0 STARLINK-3723,1 52138U 22029BC  22183.58334491 -.00720588  00000-0 -45787-1 0  9991,2 52138  53.2175 352.0260 0001384  72.9211 213.2104 15.11032399  1301,6911.187,95.299,534.009,532.096,0.0
52138.0,STARLINK-3723,PAYLOAD,2022-07-02 22:00:00,15.10520584,0.000133,53.2174,350.5279,74.8703,225.1808,-0.046186,-0.00716859,0.0,0 STARLINK-3723,1 52138U 22029BC  22183.91667824 -.00716859  00000-0 -46186-1 0  9997,2 52138  53.2174 350.5279 0001330  74.8703 225.1808 15.10520584 17779,6912.748000000001,95.331,535.533,533.694,0.0
52138.0,STARLINK-3723,PAYLOAD,2022-07-03 14:00:01,15.09442834,0.0001404,53.2175,347.5309,74.4347,251.6301,-0.037497,-0.00567701,0.0,0 STARLINK-3723,1 52138U 22029BC  22184.58334491 -.00567701  00000-0 -37497-1 0  9997,2 52138  53.2175 347.5309 0001404  74.4347 251.6301 15.09442834  1305,6916.038000000001,95.399,538.874,536.932,0.0
52138.0,STARLINK-3723,PAYLOAD,2022-07-03 22:00:00,15.08983733,0.0001338,53.2173,346.0354,82.0914,256.05,-0.013771,-0.00213853,0.0,0 STARLINK-3723,1 52138U 22029BC  22184.91667824 -.00213853  00000-0 -13771-1 0  9998,2 52138  53.2173 346.0354 0001338  82.0914 256.0500 15.08983733  1305,6917.441,95.428,540.232,538.381,0.0
52138.0,STARLINK-3723,PAYLOAD,2022-07-04 14:00:01,15.08863029,0.0001496,53.2157,343.0323,75.1458,286.1697,-0.0014937,-0.00023996,0.0,0 STARLINK-3723,1 52138U 22029BC  22185.58334491 -.00023996  00000-0 -14937-2 0  9996,2 52138  53.2157 343.0323 0001496  75.1458 286.1697 15.08863029 18024,6917.81,95.436,540.71,538.64,0.0
52138.0,STARLINK-3723,PAYLOAD,2022-07-04 22:00:00,15.08840902,0.0001472,53.2154,341.5369,67.469,305.4554,0.00044645,6.825e-05,0.0,0 STARLINK-3723,1 52138U 22029BC  22185.91667824  .00006825  00000-0  44645-3 0  9992,2 52138  53.2154 341.5369 0001472  67.4690 305.4554 15.08840902  1305,6917.878000000002,95.437,540.761,538.724,0.0
52138.0,STARLINK-3723,PAYLOAD,2022-07-05 14:00:01,15.08853969,0.0001354,53.2158,338.5433,73.5676,322.5579,-0.001597,-0.00025624,0.0,0 STARLINK-3723,1 52138U 22029BC  22186.58334491 -.00025624  00000-0 -15970-2 0  9995,2 52138  53.2158 338.5433 0001354  73.5676 322.5579 15.08853969 18175,6917.8380000000025,95.437,540.639,538.766,0.0
52138.0,STARLINK-3723,PAYLOAD,2022-07-05 22:00:00,15.08828122,0.0001357,53.2154,337.0477,65.6345,342.0903,0.0020089,0.00031818,0.0,0 STARLINK-3723,1 52138U 22029BC  22186.91667824  .00031818  00000-0  20089-2 0  9998,2 52138  53.2154 337.0477 0001357  65.6345 342.0903 15.08828122  1309,6917.917,95.438,540.72,538.8430000000002,0.0
52138.0,STARLINK-3723,PAYLOAD,2022-07-06 14:00:01,15.08867647,0.0001314,53.2156,334.0542,74.0977,356.8234,-0.0017345,-0.00027807,0.0,0 STARLINK-3723,1 52138U 22029BC  22187.58334491 -.00027807  00000-0 -17345-2 0  9999,2 52138  53.2156 334.0542 0001314  74.0977 356.8234 15.08867647  1304,6917.795999999999,95.436,540.57,538.752,0.0
52138.0,STARLINK-3723,PAYLOAD,2022-07-06 22:00:00,15.08858364,0.0001351,53.2151,332.5584,66.4143,16.1216,-0.00074901,-0.00012195,0.0,0 STARLINK-3723,1 52138U 22029BC  22187.91667824 -.00012195  00000-0 -74901-3 0  9991,2 52138  53.2151 332.5584 0001351  66.4143  16.1216 15.08858364 18376,6917.824000000001,95.436,540.624,538.755,0.0
52138.0,STARLINK-3723,PAYLOAD,2022-07-07 11:56:38,15.08838521,0.0001388,53.2171,329.9497,76.5624,283.5523,3.7483e-05,3.09e-06,0.0,0 STARLINK-3723,1 52138U 22029BC  22188.49767240  .00000309  00000-0  37483-4 0  9995,2 52138  53.2171 329.9497 0001388  76.5624 283.5523 15.08838521 18461,6917.885,95.438,540.71,538.79,0.0
52138.0,STARLINK-3723,PAYLOAD,2022-07-07 22:00:00,15.08839912,0.000139,53.2153,328.069,68.8362,48.5058,0.0010851,0.00017023,0.0,0 STARLINK-3723,1 52138U 22029BC  22188.91667824  .00017023  00000-0  10851-2 0  9998,2 52138  53.2153 328.0690 0001390  68.8362  48.5058 15.08839912  1304,6917.880999999999,95.438,540.707,538.784,0.0
52138.0,STARLINK-3723,PAYLOAD,2022-07-08 06:00:02,15.08846021,0.0001327,53.2161,326.5707,79.1726,49.8492,0.0017791,0.00028144,0.0,0 STARLINK-3723,1 52138U 22029BC  22189.25002315  .00028144  00000-0  17791-2 0  9990,2 52138  53.2161 326.5707 0001327  79.1726  49.8492 15.08846021 18576,6917.861999999999,95.437,540.645,538.809,0.0
52138.0,STARLINK-3723,PAYLOAD,2022-07-08 13:22:47,15.08860818,0.000139,53.2165,325.1901,73.1005,287.0139,0.00011027,1.468e-05,0.0,0 STARLINK-3723,1 52138U 22029BC  22189.55749128  .00001468  00000-0  11027-3 0  9990,2 52138  53.2165 325.1901 0001390  73.1005 287.0139 15.08860818 18625,6917.816999999999,95.436,540.643,538.72,0.0
52138.0,STARLINK-3723,PAYLOAD,2022-07-08 22:00:01,15.08879442,0.0001514,53.2157,323.5793,69.9286,82.3428,-0.0011808,-0.00019052,0.0,0 STARLINK-3723,1 52138U 22029BC  22189.91668981 -.00019052  00000-0 -11808-2 0  9993,2 52138  53.2157 323.5793 0001514  69.9286  82.3428 15.08879442  1306,6917.76,95.435,540.672,538.577,0.0
52138.0,STARLINK-3723,PAYLOAD,2022-07-09 06:00:00,15.08830567,0.0001483,53.2158,322.0811,80.4698,83.36,-0.00077073,-0.0001252999999999,0.0,0 STARLINK-3723,1 52138U 22029BC  22190.25001157 -.00012530  00000-0 -77073-3 0  9999,2 52138  53.2158 322.0811 0001483  80.4698  83.3600 15.08830567 18724,6917.909000000002,95.438,540.8,538.748,0.0
52138.0,STARLINK-3723,PAYLOAD,2022-07-09 14:00:01,15.08827672,0.0001553,53.2159,320.5861,75.6897,99.7192,-0.0057229,-0.00090199,0.0,0 STARLINK-3723,1 52138U 22029BC  22190.58334491 -.00090199  00000-0 -57229-2 0  9992,2 52138  53.2159 320.5861 0001553  75.6897  99.7192 15.08827672  1304,6917.918000000002,95.438,540.857,538.7090000000002,0.0
52138.0,STARLINK-3723,PAYLOAD,2022-07-09 20:00:01,15.08742815,0.0001483,53.2158,319.4644,70.5214,23.5556,0.0027518,0.00043662,0.0,0 STARLINK-3723,1 52138U 22029BC  22190.83334491  .00043662  00000-0  27518-2 0  9999,2 52138  53.2158 319.4644 0001483  70.5214  23.5556 15.08742815 18816,6918.177,95.444,541.068,539.016,0.0
52138.0,STARLINK-3723,PAYLOAD,2022-07-10 14:00:01,15.08833952,0.0001296999999999,53.2161,316.097,69.7682,140.2366,-0.00081794,-0.0001328,0.0,0 STARLINK-3723,1 52138U 22029BC  22191.58334491 -.00013280  00000-0 -81794-3 0  9994,2 52138  53.2161 316.0970 0001297  69.7682 140.2366 15.08833952  1302,6917.899,95.438,540.661,538.867,0.0
52138.0,STARLINK-3723,PAYLOAD,2022-07-10 22:00:00,15.08842264,0.0001286,53.2161,314.6005,64.876,156.7059,-0.00052531,-8.639e-05,0.0,0 STARLINK-3723,1 52138U 22029BC  22191.91667824 -.00008639  00000-0 -52531-3 0  9999,2 52138  53.2161 314.6005 0001286  64.8760 156.7059 15.08842264 18974,6917.873000000001,95.437,540.628,538.849,0.0
52138.0,STARLINK-3723,PAYLOAD,2022-07-11 14:00:01,15.08856478,0.0001345,53.2167,311.6077,66.8195,177.9657,-0.00051637,-8.499999999999999e-05,0.0,0 STARLINK-3723,1 52138U 22029BC  22192.58334491 -.00008500  00000-0 -51637-3 0  9997,2 52138  53.2167 311.6077 0001345  66.8195 177.9657 15.08856478  1306,6917.83,95.437,540.625,538.765,0.0
